EUTELSAT QUANTUM        
1 49056U 21069B   25254.16923310  .00000123  00000+0  00000+0 0  9999
2 49056   0.0434 321.1619 0002323 238.1560 259.7462  1.00270929 15130
EUTELSAT KONNECT VHTS   
1 53765U 22110A   25254.23163336  .00000014  00000+0  00000+0 0  9990
2 53765   0.0514 105.2766 0002636  56.4280 274.8732  1.00269515  4025
EUTELSAT HOTBIRD 13F    
1 54048U 22134A   25254.23371337  .00000084  00000+0  00000+0 0  9990
2 54048   0.0583 291.1004 0001929  66.7710  89.7685  1.00271171 10570
EUTELSAT HOTBIRD 13G    
1 54225U 22146A   25254.23371337  .00000084  00000+0  00000+0 0  9990
2 54225   0.0493 230.5931 0002069 310.8506 266.1947  1.00271630  4660
EUTELSAT 10B            
1 54259U 22157A   25254.23310670  .00000065  00000+0  00000+0 0  9991
2 54259   0.0535 103.7812 0001783   4.4344 336.2014  1.00269085 10214
EUTELSAT 36D            
1 59346U 24059A   25254.23822006  .00000153  00000+0  00000+0 0  9995
2 59346   0.0095 155.4331 0000420  79.1485 237.5453  1.00271109  5358
